[
    {
        "Altitude(m)": 566456.0082882082,
        "Argument of Periapsis(deg)": 0.0,
        "Eccentricity": 0.0,
        "Inclination(deg)": 97.0,
        "Latitude(deg)": -0.12243143501610658,
        "Longitude(deg)": 20.04567580443445,
        "Mean Anomaly(deg)": 0.0,
        "RAAN(deg)": 120.0,
        "Satellite Name": "Starlink Shell 3 1816",
        "Satellite Number": 1816,
        "Semi-Major Axis(m)": 6938478.169268562,
        "Time(s)": 0
    },
    {
        "Altitude(m)": 566376.2807482361,
        "Argument of Periapsis(deg)": -0.0003965466804030246,
        "Eccentricity": 0.0,
        "Inclination(deg)": 97.0,
        "Latitude(deg)": 0.5019676794939579,
        "Longitude(deg)": 19.927749253167462,
        "Mean Anomaly(deg)": 0.6254761977050459,
        "RAAN(deg)": 120.000104334274,
        "Satellite Name": "Starlink Shell 3 1816",
        "Satellite Number": 1816,
        "Semi-Major Axis(m)": 6938478.169268562,
        "Time(s)": 10
    },
    {
        "Altitude(m)": 566300.8565086015,
        "Argument of Periapsis(deg)": -0.0007930933608060492,
        "Eccentricity": 0.0,
        "Inclination(deg)": 97.0,
        "Latitude(deg)": 1.1263790489485894,
        "Longitude(deg)": 19.809806543753144,
        "Mean Anomaly(deg)": 1.2509523954100918,
        "RAAN(deg)": 120.00020866854801,
        "Satellite Name": "Starlink Shell 3 1816",
        "Satellite Number": 1816,
        "Semi-Major Axis(m)": 6938478.169268562,
        "Time(s)": 20
    },
    {
        "Altitude(m)": 566229.7428032758,
        "Argument of Periapsis(deg)": -0.001189640041209074,
        "Eccentricity": 0.0,
        "Inclination(deg)": 97.0,
        "Latitude(deg)": 1.750799673466719,
        "Longitude(deg)": 19.691829608416533,
        "Mean Anomaly(deg)": 1.8764285931151379,
        "RAAN(deg)": 120.00031300282204,
        "Satellite Name": "Starlink Shell 3 1816",
        "Satellite Number": 1816,
        "Semi-Major Axis(m)": 6938478.169268562,
        "Time(s)": 30
    },
    {
        "Altitude(m)": 566162.9447854174,
        "Argument of Periapsis(deg)": -0.0015861867216120985,
        "Eccentricity": 0.0,
        "Inclination(deg)": 97.0,
        "Latitude(deg)": 2.3752265507782493,
        "Longitude(deg)": 19.573800851302963,
        "Mean Anomaly(deg)": 2.5019047908201837,
        "RAAN(deg)": 120.00041733709604,
        "Satellite Name": "Starlink Shell 3 1816",
        "Satellite Number": 1816,
        "Semi-Major Axis(m)": 6938478.169268562,
        "Time(s)": 40
    },
    {
        "Altitude(m)": 566100.465528117,
        "Argument of Periapsis(deg)": -0.0019827334020151234,
        "Eccentricity": 0.0,
        "Inclination(deg)": 97.0,
        "Latitude(deg)": 2.999656676147465,
        "Longitude(deg)": 19.45570212314482,
        "Mean Anomaly(deg)": 3.1273809885252297,
        "RAAN(deg)": 120.00052167137005,
        "Satellite Name": "Starlink Shell 3 1816",
        "Satellite Number": 1816,
        "Semi-Major Axis(m)": 6938478.169268562,
        "Time(s)": 50
    },
    {
        "Altitude(m)": 566042.3060261854,
        "Argument of Periapsis(deg)": -0.002379280082418148,
        "Eccentricity": 0.0,
        "Inclination(deg)": 97.0,
        "Latitude(deg)": 3.6240870422919578,
        "Longitude(deg)": 19.337515208704374,
        "Mean Anomaly(deg)": 3.75285718623025,
        "RAAN(deg)": 120.00062600564404,
        "Satellite Name": "Starlink Shell 3 1816",
        "Satellite Number": 1816,
        "Semi-Major Axis(m)": 6938478.169268562,
        "Time(s)": 60
    },
    {
        "Altitude(m)": 565988.4651990213,
        "Argument of Periapsis(deg)": -0.002775826762821173,
        "Eccentricity": 0.0,
        "Inclination(deg)": 97.0,
        "Latitude(deg)": 4.248514639292547,
        "Longitude(deg)": 19.219222314086014,
        "Mean Anomaly(deg)": 4.378333383935321,
        "RAAN(deg)": 120.00073033991804,
        "Satellite Name": "Starlink Shell 3 1816",
        "Satellite Number": 1816,
        "Semi-Major Axis(m)": 6938478.169268562,
        "Time(s)": 70
    },
    {
        "Altitude(m)": 565938.9398945237,
        "Argument of Periapsis(deg)": -0.003172373443224197,
        "Eccentricity": 0.0,
        "Inclination(deg)": 97.0,
        "Latitude(deg)": 4.872936454488024,
        "Longitude(deg)": 19.10080504101083,
        "Mean Anomaly(deg)": 5.003809581640342,
        "RAAN(deg)": 120.00083467419205,
        "Satellite Name": "Starlink Shell 3 1816",
        "Satellite Number": 1816,
        "Semi-Major Axis(m)": 6938478.169268562,
        "Time(s)": 80
    },
    {
        "Altitude(m)": 565893.7248940474,
        "Argument of Periapsis(deg)": -0.0035689201236272223,
        "Eccentricity": 0.0,
        "Inclination(deg)": 97.0,
        "Latitude(deg)": 5.497349472358299,
        "Longitude(deg)": 18.982244873765442,
        "Mean Anomaly(deg)": 5.629285779345388,
        "RAAN(deg)": 120.00093900846606,
        "Satellite Name": "Starlink Shell 3 1816",
        "Satellite Number": 1816,
        "Semi-Major Axis(m)": 6938478.169268562,
        "Time(s)": 90
    },
    {
        "Altitude(m)": 565852.8129184202,
        "Argument of Periapsis(deg)": -0.003965466804030247,
        "Eccentricity": 0.0,
        "Inclination(deg)": 97.0,
        "Latitude(deg)": 6.121750674389731,
        "Longitude(deg)": 18.86352366591785,
        "Mean Anomaly(deg)": 6.254761977050434,
        "RAAN(deg)": 120.00104334274008,
        "Satellite Name": "Starlink Shell 3 1816",
        "Satellite Number": 1816,
        "Semi-Major Axis(m)": 6938478.169268562,
        "Time(s)": 100
    },
    {
        "Altitude(m)": 565816.1946350008,
        "Argument of Periapsis(deg)": -0.004362013484433271,
        "Eccentricity": 0.0,
        "Inclination(deg)": 97.0,
        "Latitude(deg)": 6.746137038917918,
        "Longitude(deg)": 18.74462261388951,
        "Mean Anomaly(deg)": 6.880238174755479,
        "RAAN(deg)": 120.0011476770141,
        "Satellite Name": "Starlink Shell 3 1816",
        "Satellite Number": 1816,
        "Semi-Major Axis(m)": 6938478.169268562,
        "Time(s)": 110
    },
    {
        "Altitude(m)": 565783.8586657738,
        "Argument of Periapsis(deg)": -0.004758560164836296,
        "Eccentricity": 0.0,
        "Inclination(deg)": 97.0,
        "Latitude(deg)": 7.370505540949845,
        "Longitude(deg)": 18.625522743094933,
        "Mean Anomaly(deg)": 7.505714372460525,
        "RAAN(deg)": 120.0012520112881,
        "Satellite Name": "Starlink Shell 3 1816",
        "Satellite Number": 1816,
        "Semi-Major Axis(m)": 6938478.169268562,
        "Time(s)": 120
    },
    {
        "Altitude(m)": 565755.791596494,
        "Argument of Periapsis(deg)": -0.005155106845239321,
        "Eccentricity": 0.0,
        "Inclination(deg)": 97.0,
        "Latitude(deg)": 7.994853151960533,
        "Longitude(deg)": 18.506205393737204,
        "Mean Anomaly(deg)": 8.131190570165572,
        "RAAN(deg)": 120.00135634556212,
        "Satellite Name": "Starlink Shell 3 1816",
        "Satellite Number": 1816,
        "Semi-Major Axis(m)": 6938478.169268562,
        "Time(s)": 130
    },
    {
        "Altitude(m)": 565731.9779868446,
        "Argument of Periapsis(deg)": -0.005551653525642346,
        "Eccentricity": 0.0,
        "Inclination(deg)": 97.0,
        "Latitude(deg)": 8.619176839657765,
        "Longitude(deg)": 18.386651193346943,
        "Mean Anomaly(deg)": 8.756666767870618,
        "RAAN(deg)": 120.00146067983611,
        "Satellite Name": "Starlink Shell 3 1816",
        "Satellite Number": 1816,
        "Semi-Major Axis(m)": 6938478.169268562,
        "Time(s)": 140
    },
    {
        "Altitude(m)": 565712.4003816316,
        "Argument of Periapsis(deg)": -0.005948200206045371,
        "Eccentricity": 0.0,
        "Inclination(deg)": 97.0,
        "Latitude(deg)": 9.243473567717972,
        "Longitude(deg)": 18.266840541771444,
        "Mean Anomaly(deg)": 9.382142965575664,
        "RAAN(deg)": 120.00156501411014,
        "Satellite Name": "Starlink Shell 3 1816",
        "Satellite Number": 1816,
        "Semi-Major Axis(m)": 6938478.169268562,
        "Time(s)": 150
    },
    {
        "Altitude(m)": 565697.0393229788,
        "Argument of Periapsis(deg)": -0.006344746886448394,
        "Eccentricity": 0.0,
        "Inclination(deg)": 97.0,
        "Latitude(deg)": 9.867740295487083,
        "Longitude(deg)": 18.146754095698714,
        "Mean Anomaly(deg)": 10.007619163280683,
        "RAAN(deg)": 120.00166934838414,
        "Satellite Name": "Starlink Shell 3 1816",
        "Satellite Number": 1816,
        "Semi-Major Axis(m)": 6938478.169268562,
        "Time(s)": 160
    },
    {
        "Altitude(m)": 565685.8733635745,
        "Argument of Periapsis(deg)": -0.00674129356685142,
        "Eccentricity": 0.0,
        "Inclination(deg)": 97.0,
        "Latitude(deg)": 10.491973977640427,
        "Longitude(deg)": 18.026371739799405,
        "Mean Anomaly(deg)": 10.63309536098573,
        "RAAN(deg)": 120.00177368265815,
        "Satellite Name": "Starlink Shell 3 1816",
        "Satellite Number": 1816,
        "Semi-Major Axis(m)": 6938478.169268562,
        "Time(s)": 170
    },
    {
        "Altitude(m)": 565678.8790808507,
        "Argument of Periapsis(deg)": -0.007137840247254445,
        "Eccentricity": 0.0,
        "Inclination(deg)": 97.0,
        "Latitude(deg)": 11.116171563803837,
        "Longitude(deg)": 17.905673070188758,
        "Mean Anomaly(deg)": 11.258571558690775,
        "RAAN(deg)": 120.00187801693214,
        "Satellite Name": "Starlink Shell 3 1816",
        "Satellite Number": 1816,
        "Semi-Major Axis(m)": 6938478.169268562,
        "Time(s)": 180
    }
]